<?xml version="1.0" encoding="UTF-8"?>
<gpx
  version="1.1"
  creator="Runkeeper - http://www.runkeeper.com"
  xmlns:xsi="http://www.w3.org/2001/XMLSchema-instance"
  xmlns="http://www.topografix.com/GPX/1/1"
  xsi:schemaLocation="http://www.topografix.com/GPX/1/1 http://www.topografix.com/GPX/1/1/gpx.xsd"
  xmlns:gpxtpx="http://www.garmin.com/xmlschemas/TrackPointExtension/v1">
<trk>
  <name><![CDATA[Running 4/14/26 1:55 pm]]></name>
  <time>2026-04-14T16:55:38Z</time>
<trkseg>
<trkpt lat="-7.968559000" lon="-34.891170000"><ele>40.5</ele><time>2026-04-14T16:55:38Z</time></trkpt>
<trkpt lat="-7.968587000" lon="-34.891266000"><ele>41.0</ele><time>2026-04-14T16:55:40Z</time></trkpt>
<trkpt lat="-7.968506000" lon="-34.891254000"><ele>41.5</ele><time>2026-04-14T16:56:08Z</time></trkpt>
<trkpt lat="-7.968444000" lon="-34.891193000"><ele>42.0</ele><time>2026-04-14T16:56:30Z</time></trkpt>
<trkpt lat="-7.968373000" lon="-34.891243000"><ele>42.6</ele><time>2026-04-14T16:56:42Z</time></trkpt>
<trkpt lat="-7.968336000" lon="-34.891327000"><ele>43.2</ele><time>2026-04-14T16:56:51Z</time></trkpt>
<trkpt lat="-7.968290000" lon="-34.891403000"><ele>44.4</ele><time>2026-04-14T16:56:58Z</time></trkpt>
<trkpt lat="-7.968250000" lon="-34.891487000"><ele>45.6</ele><time>2026-04-14T16:57:05Z</time></trkpt>
<trkpt lat="-7.968189000" lon="-34.891552000"><ele>46.9</ele><time>2026-04-14T16:57:13Z</time></trkpt>
<trkpt lat="-7.968106000" lon="-34.891530000"><ele>48.2</ele><time>2026-04-14T16:57:23Z</time></trkpt>
<trkpt lat="-7.968035000" lon="-34.891480000"><ele>49.3</ele><time>2026-04-14T16:57:27Z</time></trkpt>
<trkpt lat="-7.967956000" lon="-34.891410000"><ele>50.5</ele><time>2026-04-14T16:57:31Z</time></trkpt>
<trkpt lat="-7.967883000" lon="-34.891357000"><ele>51.5</ele><time>2026-04-14T16:57:34Z</time></trkpt>
<trkpt lat="-7.967791000" lon="-34.891315000"><ele>52.4</ele><time>2026-04-14T16:57:37Z</time></trkpt>
<trkpt lat="-7.967697000" lon="-34.891277000"><ele>53.1</ele><time>2026-04-14T16:57:40Z</time></trkpt>
<trkpt lat="-7.967601000" lon="-34.891250000"><ele>53.6</ele><time>2026-04-14T16:57:43Z</time></trkpt>
<trkpt lat="-7.967511000" lon="-34.891220000"><ele>54.1</ele><time>2026-04-14T16:57:46Z</time></trkpt>
<trkpt lat="-7.967425000" lon="-34.891186000"><ele>54.4</ele><time>2026-04-14T16:57:49Z</time></trkpt>
<trkpt lat="-7.967331000" lon="-34.891140000"><ele>54.5</ele><time>2026-04-14T16:57:52Z</time></trkpt>
<trkpt lat="-7.967251000" lon="-34.891100000"><ele>54.5</ele><time>2026-04-14T16:57:55Z</time></trkpt>
<trkpt lat="-7.967171000" lon="-34.891056000"><ele>54.5</ele><time>2026-04-14T16:57:58Z</time></trkpt>
<trkpt lat="-7.967091000" lon="-34.891020000"><ele>54.4</ele><time>2026-04-14T16:58:01Z</time></trkpt>
<trkpt lat="-7.967005000" lon="-34.890990000"><ele>54.2</ele><time>2026-04-14T16:58:04Z</time></trkpt>
<trkpt lat="-7.966907000" lon="-34.890960000"><ele>54.1</ele><time>2026-04-14T16:58:07Z</time></trkpt>
<trkpt lat="-7.966813000" lon="-34.890920000"><ele>54.0</ele><time>2026-04-14T16:58:10Z</time></trkpt>
<trkpt lat="-7.966732000" lon="-34.890900000"><ele>53.9</ele><time>2026-04-14T16:58:13Z</time></trkpt>
<trkpt lat="-7.966650000" lon="-34.890884000"><ele>53.8</ele><time>2026-04-14T16:58:16Z</time></trkpt>
<trkpt lat="-7.966533000" lon="-34.890858000"><ele>53.7</ele><time>2026-04-14T16:58:21Z</time></trkpt>
<trkpt lat="-7.966433000" lon="-34.890830000"><ele>53.5</ele><time>2026-04-14T16:58:26Z</time></trkpt>
<trkpt lat="-7.966338000" lon="-34.890804000"><ele>53.4</ele><time>2026-04-14T16:58:31Z</time></trkpt>
<trkpt lat="-7.966238000" lon="-34.890780000"><ele>53.2</ele><time>2026-04-14T16:58:35Z</time></trkpt>
<trkpt lat="-7.966149000" lon="-34.890755000"><ele>52.9</ele><time>2026-04-14T16:58:39Z</time></trkpt>
<trkpt lat="-7.966050000" lon="-34.890730000"><ele>52.6</ele><time>2026-04-14T16:58:42Z</time></trkpt>
<trkpt lat="-7.965966000" lon="-34.890728000"><ele>52.4</ele><time>2026-04-14T16:58:45Z</time></trkpt>
<trkpt lat="-7.965871000" lon="-34.890728000"><ele>52.1</ele><time>2026-04-14T16:58:50Z</time></trkpt>
<trkpt lat="-7.965777000" lon="-34.890700000"><ele>51.8</ele><time>2026-04-14T16:58:54Z</time></trkpt>
<trkpt lat="-7.965678000" lon="-34.890686000"><ele>51.6</ele><time>2026-04-14T16:58:57Z</time></trkpt>
<trkpt lat="-7.965581000" lon="-34.890670000"><ele>51.5</ele><time>2026-04-14T16:59:00Z</time></trkpt>
<trkpt lat="-7.965479000" lon="-34.890644000"><ele>51.3</ele><time>2026-04-14T16:59:03Z</time></trkpt>
<trkpt lat="-7.965376000" lon="-34.890620000"><ele>51.2</ele><time>2026-04-14T16:59:06Z</time></trkpt>
<trkpt lat="-7.965274000" lon="-34.890590000"><ele>51.1</ele><time>2026-04-14T16:59:09Z</time></trkpt>
<trkpt lat="-7.965169000" lon="-34.890564000"><ele>51.0</ele><time>2026-04-14T16:59:12Z</time></trkpt>
<trkpt lat="-7.965070000" lon="-34.890550000"><ele>51.0</ele><time>2026-04-14T16:59:15Z</time></trkpt>
<trkpt lat="-7.964969000" lon="-34.890526000"><ele>51.0</ele><time>2026-04-14T16:59:18Z</time></trkpt>
<trkpt lat="-7.964875000" lon="-34.890507000"><ele>51.0</ele><time>2026-04-14T16:59:21Z</time></trkpt>
<trkpt lat="-7.964780000" lon="-34.890495000"><ele>50.9</ele><time>2026-04-14T16:59:24Z</time></trkpt>
<trkpt lat="-7.964691000" lon="-34.890480000"><ele>50.8</ele><time>2026-04-14T16:59:27Z</time></trkpt>
<trkpt lat="-7.964597000" lon="-34.890465000"><ele>50.6</ele><time>2026-04-14T16:59:30Z</time></trkpt>
<trkpt lat="-7.964500000" lon="-34.890460000"><ele>50.5</ele><time>2026-04-14T16:59:33Z</time></trkpt>
<trkpt lat="-7.964403000" lon="-34.890453000"><ele>50.3</ele><time>2026-04-14T16:59:36Z</time></trkpt>
<trkpt lat="-7.964305000" lon="-34.890440000"><ele>50.1</ele><time>2026-04-14T16:59:39Z</time></trkpt>
<trkpt lat="-7.964201000" lon="-34.890427000"><ele>49.9</ele><time>2026-04-14T16:59:42Z</time></trkpt>
<trkpt lat="-7.964103000" lon="-34.890410000"><ele>49.7</ele><time>2026-04-14T16:59:45Z</time></trkpt>
<trkpt lat="-7.963998000" lon="-34.890404000"><ele>49.6</ele><time>2026-04-14T16:59:48Z</time></trkpt>
<trkpt lat="-7.963896000" lon="-34.890400000"><ele>49.5</ele><time>2026-04-14T16:59:51Z</time></trkpt>
<trkpt lat="-7.963794000" lon="-34.890392000"><ele>49.5</ele><time>2026-04-14T16:59:54Z</time></trkpt>
<trkpt lat="-7.963695000" lon="-34.890390000"><ele>49.5</ele><time>2026-04-14T16:59:57Z</time></trkpt>
<trkpt lat="-7.963613000" lon="-34.890392000"><ele>49.4</ele><time>2026-04-14T17:00:00Z</time></trkpt>
<trkpt lat="-7.963524000" lon="-34.890385000"><ele>49.4</ele><time>2026-04-14T17:00:03Z</time></trkpt>
<trkpt lat="-7.963431000" lon="-34.890377000"><ele>49.4</ele><time>2026-04-14T17:00:06Z</time></trkpt>
<trkpt lat="-7.963341000" lon="-34.890380000"><ele>49.4</ele><time>2026-04-14T17:00:09Z</time></trkpt>
<trkpt lat="-7.963248000" lon="-34.890380000"><ele>49.3</ele><time>2026-04-14T17:00:12Z</time></trkpt>
<trkpt lat="-7.963138000" lon="-34.890385000"><ele>49.2</ele><time>2026-04-14T17:00:16Z</time></trkpt>
<trkpt lat="-7.963056000" lon="-34.890404000"><ele>49.1</ele><time>2026-04-14T17:00:20Z</time></trkpt>
<trkpt lat="-7.962975000" lon="-34.890385000"><ele>48.9</ele><time>2026-04-14T17:00:24Z</time></trkpt>
<trkpt lat="-7.962887000" lon="-34.890370000"><ele>48.7</ele><time>2026-04-14T17:00:27Z</time></trkpt>
<trkpt lat="-7.962801000" lon="-34.890350000"><ele>48.6</ele><time>2026-04-14T17:00:30Z</time></trkpt>
<trkpt lat="-7.962725000" lon="-34.890320000"><ele>48.5</ele><time>2026-04-14T17:00:33Z</time></trkpt>
<trkpt lat="-7.962637000" lon="-34.890305000"><ele>48.6</ele><time>2026-04-14T17:00:37Z</time></trkpt>
<trkpt lat="-7.962551000" lon="-34.890305000"><ele>48.7</ele><time>2026-04-14T17:00:40Z</time></trkpt>
<trkpt lat="-7.962451000" lon="-34.890278000"><ele>48.8</ele><time>2026-04-14T17:00:44Z</time></trkpt>
<trkpt lat="-7.962368000" lon="-34.890263000"><ele>48.9</ele><time>2026-04-14T17:00:47Z</time></trkpt>
<trkpt lat="-7.962273000" lon="-34.890240000"><ele>49.2</ele><time>2026-04-14T17:00:50Z</time></trkpt>
<trkpt lat="-7.962184000" lon="-34.890217000"><ele>49.5</ele><time>2026-04-14T17:00:53Z</time></trkpt>
<trkpt lat="-7.962092000" lon="-34.890194000"><ele>49.8</ele><time>2026-04-14T17:00:56Z</time></trkpt>
<trkpt lat="-7.961992000" lon="-34.890167000"><ele>50.2</ele><time>2026-04-14T17:00:59Z</time></trkpt>
<trkpt lat="-7.961905000" lon="-34.890150000"><ele>50.6</ele><time>2026-04-14T17:01:02Z</time></trkpt>
<trkpt lat="-7.961805000" lon="-34.890133000"><ele>51.1</ele><time>2026-04-14T17:01:06Z</time></trkpt>
<trkpt lat="-7.961713000" lon="-34.890130000"><ele>51.5</ele><time>2026-04-14T17:01:12Z</time></trkpt>
<trkpt lat="-7.961623000" lon="-34.890125000"><ele>52.0</ele><time>2026-04-14T17:01:17Z</time></trkpt>
<trkpt lat="-7.961535000" lon="-34.890133000"><ele>52.5</ele><time>2026-04-14T17:01:22Z</time></trkpt>
<trkpt lat="-7.961449000" lon="-34.890160000"><ele>53.0</ele><time>2026-04-14T17:01:28Z</time></trkpt>
<trkpt lat="-7.961361000" lon="-34.890180000"><ele>53.5</ele><time>2026-04-14T17:01:34Z</time></trkpt>
<trkpt lat="-7.961270000" lon="-34.890182000"><ele>54.1</ele><time>2026-04-14T17:01:37Z</time></trkpt>
<trkpt lat="-7.961180000" lon="-34.890186000"><ele>54.6</ele><time>2026-04-14T17:01:40Z</time></trkpt>
<trkpt lat="-7.961090000" lon="-34.890194000"><ele>55.2</ele><time>2026-04-14T17:01:43Z</time></trkpt>
<trkpt lat="-7.961001000" lon="-34.890205000"><ele>55.7</ele><time>2026-04-14T17:01:46Z</time></trkpt>
<trkpt lat="-7.960920000" lon="-34.890220000"><ele>56.2</ele><time>2026-04-14T17:01:49Z</time></trkpt>
<trkpt lat="-7.960837000" lon="-34.890247000"><ele>56.5</ele><time>2026-04-14T17:01:52Z</time></trkpt>
<trkpt lat="-7.960730000" lon="-34.890274000"><ele>56.9</ele><time>2026-04-14T17:01:55Z</time></trkpt>
<trkpt lat="-7.960643000" lon="-34.890300000"><ele>57.2</ele><time>2026-04-14T17:01:58Z</time></trkpt>
<trkpt lat="-7.960541000" lon="-34.890324000"><ele>57.5</ele><time>2026-04-14T17:02:02Z</time></trkpt>
<trkpt lat="-7.960455000" lon="-34.890358000"><ele>57.7</ele><time>2026-04-14T17:02:07Z</time></trkpt>
<trkpt lat="-7.960361000" lon="-34.890392000"><ele>58.0</ele><time>2026-04-14T17:02:12Z</time></trkpt>
<trkpt lat="-7.960288000" lon="-34.890430000"><ele>58.2</ele><time>2026-04-14T17:02:16Z</time></trkpt>
<trkpt lat="-7.960199000" lon="-34.890465000"><ele>58.4</ele><time>2026-04-14T17:02:20Z</time></trkpt>
<trkpt lat="-7.960103000" lon="-34.890507000"><ele>58.5</ele><time>2026-04-14T17:02:23Z</time></trkpt>
<trkpt lat="-7.959997000" lon="-34.890553000"><ele>58.5</ele><time>2026-04-14T17:02:26Z</time></trkpt>
<trkpt lat="-7.959886000" lon="-34.890587000"><ele>58.6</ele><time>2026-04-14T17:02:29Z</time></trkpt>
<trkpt lat="-7.959773000" lon="-34.890633000"><ele>58.7</ele><time>2026-04-14T17:02:32Z</time></trkpt>
<trkpt lat="-7.959672000" lon="-34.890680000"><ele>58.7</ele><time>2026-04-14T17:02:35Z</time></trkpt>
<trkpt lat="-7.959583000" lon="-34.890728000"><ele>58.7</ele><time>2026-04-14T17:02:38Z</time></trkpt>
<trkpt lat="-7.959517000" lon="-34.890780000"><ele>58.7</ele><time>2026-04-14T17:02:41Z</time></trkpt>
<trkpt lat="-7.959445000" lon="-34.890827000"><ele>58.7</ele><time>2026-04-14T17:02:44Z</time></trkpt>
<trkpt lat="-7.959372000" lon="-34.890880000"><ele>58.7</ele><time>2026-04-14T17:02:49Z</time></trkpt>
<trkpt lat="-7.959296000" lon="-34.890910000"><ele>58.8</ele><time>2026-04-14T17:02:53Z</time></trkpt>
<trkpt lat="-7.959209000" lon="-34.890926000"><ele>58.9</ele><time>2026-04-14T17:02:58Z</time></trkpt>
<trkpt lat="-7.959122000" lon="-34.890940000"><ele>59.1</ele><time>2026-04-14T17:03:03Z</time></trkpt>
<trkpt lat="-7.959029000" lon="-34.890950000"><ele>59.4</ele><time>2026-04-14T17:03:09Z</time></trkpt>
<trkpt lat="-7.958947000" lon="-34.890970000"><ele>59.6</ele><time>2026-04-14T17:03:12Z</time></trkpt>
<trkpt lat="-7.958851000" lon="-34.890972000"><ele>59.8</ele><time>2026-04-14T17:03:16Z</time></trkpt>
<trkpt lat="-7.958771000" lon="-34.890995000"><ele>60.1</ele><time>2026-04-14T17:03:19Z</time></trkpt>
<trkpt lat="-7.958686000" lon="-34.891006000"><ele>60.4</ele><time>2026-04-14T17:03:22Z</time></trkpt>
<trkpt lat="-7.958597000" lon="-34.891010000"><ele>60.6</ele><time>2026-04-14T17:03:25Z</time></trkpt>
<trkpt lat="-7.958512000" lon="-34.891020000"><ele>60.8</ele><time>2026-04-14T17:03:28Z</time></trkpt>
<trkpt lat="-7.958425000" lon="-34.891006000"><ele>61.0</ele><time>2026-04-14T17:03:31Z</time></trkpt>
<trkpt lat="-7.958322000" lon="-34.891003000"><ele>61.1</ele><time>2026-04-14T17:03:35Z</time></trkpt>
<trkpt lat="-7.958235000" lon="-34.891000000"><ele>61.2</ele><time>2026-04-14T17:03:38Z</time></trkpt>
<trkpt lat="-7.958144000" lon="-34.890987000"><ele>61.2</ele><time>2026-04-14T17:03:41Z</time></trkpt>
<trkpt lat="-7.958056000" lon="-34.890984000"><ele>61.1</ele><time>2026-04-14T17:03:44Z</time></trkpt>
<trkpt lat="-7.957961000" lon="-34.890995000"><ele>60.9</ele><time>2026-04-14T17:03:47Z</time></trkpt>
<trkpt lat="-7.957871000" lon="-34.890995000"><ele>60.7</ele><time>2026-04-14T17:03:50Z</time></trkpt>
<trkpt lat="-7.957792000" lon="-34.891020000"><ele>60.5</ele><time>2026-04-14T17:03:53Z</time></trkpt>
<trkpt lat="-7.957700000" lon="-34.891064000"><ele>60.3</ele><time>2026-04-14T17:03:56Z</time></trkpt>
<trkpt lat="-7.957615000" lon="-34.891098000"><ele>60.0</ele><time>2026-04-14T17:03:59Z</time></trkpt>
<trkpt lat="-7.957536000" lon="-34.891130000"><ele>59.7</ele><time>2026-04-14T17:04:02Z</time></trkpt>
<trkpt lat="-7.957443000" lon="-34.891163000"><ele>59.5</ele><time>2026-04-14T17:04:06Z</time></trkpt>
<trkpt lat="-7.957366000" lon="-34.891205000"><ele>59.2</ele><time>2026-04-14T17:04:12Z</time></trkpt>
<trkpt lat="-7.957278000" lon="-34.891260000"><ele>58.9</ele><time>2026-04-14T17:04:18Z</time></trkpt>
<trkpt lat="-7.957189000" lon="-34.891300000"><ele>58.7</ele><time>2026-04-14T17:04:24Z</time></trkpt>
<trkpt lat="-7.957113000" lon="-34.891342000"><ele>58.5</ele><time>2026-04-14T17:04:31Z</time></trkpt>
<trkpt lat="-7.957032000" lon="-34.891370000"><ele>58.5</ele><time>2026-04-14T17:04:37Z</time></trkpt>
<trkpt lat="-7.956946000" lon="-34.891380000"><ele>58.6</ele><time>2026-04-14T17:04:43Z</time></trkpt>
<trkpt lat="-7.956854000" lon="-34.891388000"><ele>58.8</ele><time>2026-04-14T17:04:49Z</time></trkpt>
<trkpt lat="-7.956758000" lon="-34.891388000"><ele>59.1</ele><time>2026-04-14T17:04:55Z</time></trkpt>
<trkpt lat="-7.956659000" lon="-34.891376000"><ele>59.4</ele><time>2026-04-14T17:05:01Z</time></trkpt>
<trkpt lat="-7.956554000" lon="-34.891346000"><ele>59.7</ele><time>2026-04-14T17:05:05Z</time></trkpt>
<trkpt lat="-7.956468000" lon="-34.891320000"><ele>60.1</ele><time>2026-04-14T17:05:08Z</time></trkpt>
<trkpt lat="-7.956379000" lon="-34.891280000"><ele>60.5</ele><time>2026-04-14T17:05:12Z</time></trkpt>
<trkpt lat="-7.956295000" lon="-34.891247000"><ele>60.8</ele><time>2026-04-14T17:05:16Z</time></trkpt>
<trkpt lat="-7.956217000" lon="-34.891205000"><ele>61.1</ele><time>2026-04-14T17:05:20Z</time></trkpt>
<trkpt lat="-7.956132000" lon="-34.891160000"><ele>61.3</ele><time>2026-04-14T17:05:24Z</time></trkpt>
<trkpt lat="-7.956063000" lon="-34.891113000"><ele>61.4</ele><time>2026-04-14T17:05:27Z</time></trkpt>
<trkpt lat="-7.955994000" lon="-34.891068000"><ele>61.5</ele><time>2026-04-14T17:05:30Z</time></trkpt>
<trkpt lat="-7.955898000" lon="-34.891020000"><ele>61.5</ele><time>2026-04-14T17:05:34Z</time></trkpt>
<trkpt lat="-7.955813000" lon="-34.890995000"><ele>61.5</ele><time>2026-04-14T17:05:37Z</time></trkpt>
<trkpt lat="-7.955731000" lon="-34.890938000"><ele>61.5</ele><time>2026-04-14T17:05:41Z</time></trkpt>
<trkpt lat="-7.955672000" lon="-34.890880000"><ele>61.5</ele><time>2026-04-14T17:05:44Z</time></trkpt>
<trkpt lat="-7.955580000" lon="-34.890827000"><ele>61.5</ele><time>2026-04-14T17:05:50Z</time></trkpt>
<trkpt lat="-7.955503000" lon="-34.890774000"><ele>61.5</ele><time>2026-04-14T17:05:54Z</time></trkpt>
<trkpt lat="-7.955426000" lon="-34.890728000"><ele>61.5</ele><time>2026-04-14T17:05:58Z</time></trkpt>
<trkpt lat="-7.955329000" lon="-34.890682000"><ele>61.5</ele><time>2026-04-14T17:06:02Z</time></trkpt>
<trkpt lat="-7.955237000" lon="-34.890660000"><ele>61.6</ele><time>2026-04-14T17:06:05Z</time></trkpt>
<trkpt lat="-7.955141000" lon="-34.890650000"><ele>61.7</ele><time>2026-04-14T17:06:08Z</time></trkpt>
<trkpt lat="-7.955067000" lon="-34.890614000"><ele>61.8</ele><time>2026-04-14T17:06:11Z</time></trkpt>
<trkpt lat="-7.954981000" lon="-34.890590000"><ele>61.9</ele><time>2026-04-14T17:06:16Z</time></trkpt>
<trkpt lat="-7.954901000" lon="-34.890530000"><ele>62.1</ele><time>2026-04-14T17:06:20Z</time></trkpt>
<trkpt lat="-7.954827000" lon="-34.890476000"><ele>62.2</ele><time>2026-04-14T17:06:23Z</time></trkpt>
<trkpt lat="-7.954758000" lon="-34.890430000"><ele>62.3</ele><time>2026-04-14T17:06:26Z</time></trkpt>
<trkpt lat="-7.954680000" lon="-34.890390000"><ele>62.4</ele><time>2026-04-14T17:06:29Z</time></trkpt>
<trkpt lat="-7.954594000" lon="-34.890358000"><ele>62.5</ele><time>2026-04-14T17:06:34Z</time></trkpt>
<trkpt lat="-7.954530000" lon="-34.890305000"><ele>62.6</ele><time>2026-04-14T17:06:39Z</time></trkpt>
<trkpt lat="-7.954450000" lon="-34.890263000"><ele>62.8</ele><time>2026-04-14T17:06:45Z</time></trkpt>
<trkpt lat="-7.954373000" lon="-34.890230000"><ele>63.0</ele><time>2026-04-14T17:06:50Z</time></trkpt>
<trkpt lat="-7.954293000" lon="-34.890200000"><ele>63.2</ele><time>2026-04-14T17:06:56Z</time></trkpt>
<trkpt lat="-7.954200000" lon="-34.890180000"><ele>63.3</ele><time>2026-04-14T17:07:03Z</time></trkpt>
<trkpt lat="-7.954121000" lon="-34.890133000"><ele>63.4</ele><time>2026-04-14T17:07:10Z</time></trkpt>
<trkpt lat="-7.954049000" lon="-34.890080000"><ele>63.3</ele><time>2026-04-14T17:07:16Z</time></trkpt>
<trkpt lat="-7.953980000" lon="-34.890038000"><ele>63.2</ele><time>2026-04-14T17:07:21Z</time></trkpt>
<trkpt lat="-7.953894000" lon="-34.890000000"><ele>63.1</ele><time>2026-04-14T17:07:25Z</time></trkpt>
<trkpt lat="-7.953818000" lon="-34.889957000"><ele>63.0</ele><time>2026-04-14T17:07:29Z</time></trkpt>
<trkpt lat="-7.953732000" lon="-34.889900000"><ele>62.9</ele><time>2026-04-14T17:07:34Z</time></trkpt>
<trkpt lat="-7.953647000" lon="-34.889843000"><ele>62.7</ele><time>2026-04-14T17:07:38Z</time></trkpt>
<trkpt lat="-7.953575000" lon="-34.889805000"><ele>62.5</ele><time>2026-04-14T17:07:41Z</time></trkpt>
<trkpt lat="-7.953504000" lon="-34.889763000"><ele>62.3</ele><time>2026-04-14T17:07:44Z</time></trkpt>
<trkpt lat="-7.953415000" lon="-34.889720000"><ele>62.0</ele><time>2026-04-14T17:07:47Z</time></trkpt>
<trkpt lat="-7.953329000" lon="-34.889680000"><ele>61.7</ele><time>2026-04-14T17:07:50Z</time></trkpt>
<trkpt lat="-7.953250000" lon="-34.889633000"><ele>61.4</ele><time>2026-04-14T17:07:53Z</time></trkpt>
<trkpt lat="-7.953176000" lon="-34.889584000"><ele>61.0</ele><time>2026-04-14T17:07:56Z</time></trkpt>
<trkpt lat="-7.953101000" lon="-34.889553000"><ele>60.5</ele><time>2026-04-14T17:07:59Z</time></trkpt>
<trkpt lat="-7.953022000" lon="-34.889510000"><ele>60.0</ele><time>2026-04-14T17:08:02Z</time></trkpt>
<trkpt lat="-7.952932000" lon="-34.889458000"><ele>59.4</ele><time>2026-04-14T17:08:06Z</time></trkpt>
<trkpt lat="-7.952836000" lon="-34.889416000"><ele>58.5</ele><time>2026-04-14T17:08:10Z</time></trkpt>
<trkpt lat="-7.952739000" lon="-34.889374000"><ele>57.6</ele><time>2026-04-14T17:08:13Z</time></trkpt>
<trkpt lat="-7.952650000" lon="-34.889340000"><ele>56.5</ele><time>2026-04-14T17:08:16Z</time></trkpt>
<trkpt lat="-7.952568000" lon="-34.889310000"><ele>55.4</ele><time>2026-04-14T17:08:19Z</time></trkpt>
<trkpt lat="-7.952466000" lon="-34.889286000"><ele>53.9</ele><time>2026-04-14T17:08:23Z</time></trkpt>
<trkpt lat="-7.952372000" lon="-34.889263000"><ele>52.5</ele><time>2026-04-14T17:08:27Z</time></trkpt>
<trkpt lat="-7.952294000" lon="-34.889240000"><ele>51.0</ele><time>2026-04-14T17:08:30Z</time></trkpt>
<trkpt lat="-7.952190000" lon="-34.889220000"><ele>49.5</ele><time>2026-04-14T17:08:34Z</time></trkpt>
<trkpt lat="-7.952101000" lon="-34.889217000"><ele>48.2</ele><time>2026-04-14T17:08:37Z</time></trkpt>
<trkpt lat="-7.952005000" lon="-34.889210000"><ele>46.8</ele><time>2026-04-14T17:08:40Z</time></trkpt>
<trkpt lat="-7.951905000" lon="-34.889206000"><ele>45.5</ele><time>2026-04-14T17:08:43Z</time></trkpt>
<trkpt lat="-7.951812000" lon="-34.889190000"><ele>44.5</ele><time>2026-04-14T17:08:46Z</time></trkpt>
<trkpt lat="-7.951720000" lon="-34.889183000"><ele>43.4</ele><time>2026-04-14T17:08:49Z</time></trkpt>
<trkpt lat="-7.951622000" lon="-34.889175000"><ele>42.4</ele><time>2026-04-14T17:08:52Z</time></trkpt>
<trkpt lat="-7.951522000" lon="-34.889164000"><ele>41.5</ele><time>2026-04-14T17:08:55Z</time></trkpt>
<trkpt lat="-7.951423000" lon="-34.889156000"><ele>40.9</ele><time>2026-04-14T17:08:58Z</time></trkpt>
<trkpt lat="-7.951339000" lon="-34.889156000"><ele>40.3</ele><time>2026-04-14T17:09:01Z</time></trkpt>
<trkpt lat="-7.951236000" lon="-34.889153000"><ele>39.7</ele><time>2026-04-14T17:09:05Z</time></trkpt>
<trkpt lat="-7.951134000" lon="-34.889164000"><ele>39.2</ele><time>2026-04-14T17:09:09Z</time></trkpt>
<trkpt lat="-7.951046000" lon="-34.889160000"><ele>38.6</ele><time>2026-04-14T17:09:12Z</time></trkpt>
<trkpt lat="-7.950951000" lon="-34.889160000"><ele>38.2</ele><time>2026-04-14T17:09:15Z</time></trkpt>
<trkpt lat="-7.950853000" lon="-34.889153000"><ele>37.7</ele><time>2026-04-14T17:09:19Z</time></trkpt>
<trkpt lat="-7.950766000" lon="-34.889140000"><ele>37.3</ele><time>2026-04-14T17:09:22Z</time></trkpt>
<trkpt lat="-7.950682000" lon="-34.889137000"><ele>36.9</ele><time>2026-04-14T17:09:25Z</time></trkpt>
<trkpt lat="-7.950592000" lon="-34.889126000"><ele>36.6</ele><time>2026-04-14T17:09:28Z</time></trkpt>
<trkpt lat="-7.950498000" lon="-34.889114000"><ele>36.4</ele><time>2026-04-14T17:09:32Z</time></trkpt>
<trkpt lat="-7.950413000" lon="-34.889088000"><ele>36.2</ele><time>2026-04-14T17:09:37Z</time></trkpt>
<trkpt lat="-7.950326000" lon="-34.889070000"><ele>36.1</ele><time>2026-04-14T17:09:41Z</time></trkpt>
<trkpt lat="-7.950219000" lon="-34.889050000"><ele>36.0</ele><time>2026-04-14T17:09:45Z</time></trkpt>
<trkpt lat="-7.950135000" lon="-34.889046000"><ele>36.0</ele><time>2026-04-14T17:09:50Z</time></trkpt>
<trkpt lat="-7.950052000" lon="-34.889010000"><ele>36.0</ele><time>2026-04-14T17:09:57Z</time></trkpt>
<trkpt lat="-7.949959000" lon="-34.889008000"><ele>36.0</ele><time>2026-04-14T17:10:04Z</time></trkpt>
<trkpt lat="-7.949872000" lon="-34.888985000"><ele>35.9</ele><time>2026-04-14T17:10:09Z</time></trkpt>
<trkpt lat="-7.949776000" lon="-34.888970000"><ele>35.7</ele><time>2026-04-14T17:10:13Z</time></trkpt>
<trkpt lat="-7.949676000" lon="-34.888930000"><ele>35.5</ele><time>2026-04-14T17:10:17Z</time></trkpt>
<trkpt lat="-7.949588000" lon="-34.888893000"><ele>35.1</ele><time>2026-04-14T17:10:20Z</time></trkpt>
<trkpt lat="-7.949511000" lon="-34.888866000"><ele>34.6</ele><time>2026-04-14T17:10:23Z</time></trkpt>
<trkpt lat="-7.949418000" lon="-34.888830000"><ele>34.1</ele><time>2026-04-14T17:10:27Z</time></trkpt>
<trkpt lat="-7.949330000" lon="-34.888794000"><ele>33.5</ele><time>2026-04-14T17:10:31Z</time></trkpt>
<trkpt lat="-7.949249000" lon="-34.888733000"><ele>32.7</ele><time>2026-04-14T17:10:36Z</time></trkpt>
<trkpt lat="-7.949175000" lon="-34.888690000"><ele>31.9</ele><time>2026-04-14T17:10:39Z</time></trkpt>
<trkpt lat="-7.949096000" lon="-34.888645000"><ele>31.1</ele><time>2026-04-14T17:10:42Z</time></trkpt>
<trkpt lat="-7.949019000" lon="-34.888596000"><ele>30.2</ele><time>2026-04-14T17:10:45Z</time></trkpt>
<trkpt lat="-7.948938000" lon="-34.888550000"><ele>29.3</ele><time>2026-04-14T17:10:48Z</time></trkpt>
<trkpt lat="-7.948862000" lon="-34.888490000"><ele>28.5</ele><time>2026-04-14T17:10:51Z</time></trkpt>
<trkpt lat="-7.948786000" lon="-34.888428000"><ele>27.6</ele><time>2026-04-14T17:10:54Z</time></trkpt>
<trkpt lat="-7.948714000" lon="-34.888360000"><ele>26.8</ele><time>2026-04-14T17:10:57Z</time></trkpt>
<trkpt lat="-7.948662000" lon="-34.888287000"><ele>26.1</ele><time>2026-04-14T17:11:00Z</time></trkpt>
<trkpt lat="-7.948641000" lon="-34.888206000"><ele>25.5</ele><time>2026-04-14T17:11:03Z</time></trkpt>
<trkpt lat="-7.948629000" lon="-34.888100000"><ele>24.9</ele><time>2026-04-14T17:11:07Z</time></trkpt>
<trkpt lat="-7.948626000" lon="-34.888000000"><ele>24.5</ele><time>2026-04-14T17:11:11Z</time></trkpt>
<trkpt lat="-7.948611000" lon="-34.887910000"><ele>24.1</ele><time>2026-04-14T17:11:15Z</time></trkpt>
<trkpt lat="-7.948621000" lon="-34.887820000"><ele>23.7</ele><time>2026-04-14T17:11:19Z</time></trkpt>
<trkpt lat="-7.948610000" lon="-34.887740000"><ele>23.4</ele><time>2026-04-14T17:11:22Z</time></trkpt>
<trkpt lat="-7.948599000" lon="-34.887653000"><ele>23.1</ele><time>2026-04-14T17:11:25Z</time></trkpt>
<trkpt lat="-7.948589000" lon="-34.887570000"><ele>22.8</ele><time>2026-04-14T17:11:28Z</time></trkpt>
<trkpt lat="-7.948582000" lon="-34.887480000"><ele>22.6</ele><time>2026-04-14T17:11:31Z</time></trkpt>
<trkpt lat="-7.948575000" lon="-34.887394000"><ele>22.5</ele><time>2026-04-14T17:11:34Z</time></trkpt>
<trkpt lat="-7.948591000" lon="-34.887302000"><ele>22.5</ele><time>2026-04-14T17:11:40Z</time></trkpt>
<trkpt lat="-7.948581000" lon="-34.887220000"><ele>22.4</ele><time>2026-04-14T17:11:45Z</time></trkpt>
<trkpt lat="-7.948578000" lon="-34.887130000"><ele>22.3</ele><time>2026-04-14T17:11:50Z</time></trkpt>
<trkpt lat="-7.948579000" lon="-34.887047000"><ele>22.3</ele><time>2026-04-14T17:11:55Z</time></trkpt>
<trkpt lat="-7.948583000" lon="-34.886960000"><ele>22.3</ele><time>2026-04-14T17:12:01Z</time></trkpt>
<trkpt lat="-7.948576000" lon="-34.886870000"><ele>22.3</ele><time>2026-04-14T17:12:08Z</time></trkpt>
<trkpt lat="-7.948555000" lon="-34.886765000"><ele>22.4</ele><time>2026-04-14T17:12:16Z</time></trkpt>
<trkpt lat="-7.948565000" lon="-34.886680000"><ele>22.5</ele><time>2026-04-14T17:12:18Z</time></trkpt>
<trkpt lat="-7.948584000" lon="-34.886578000"><ele>22.5</ele><time>2026-04-14T17:12:21Z</time></trkpt>
<trkpt lat="-7.948577000" lon="-34.886470000"><ele>22.6</ele><time>2026-04-14T17:12:24Z</time></trkpt>
<trkpt lat="-7.948556000" lon="-34.886364000"><ele>22.7</ele><time>2026-04-14T17:12:28Z</time></trkpt>
<trkpt lat="-7.948548000" lon="-34.886265000"><ele>22.8</ele><time>2026-04-14T17:12:32Z</time></trkpt>
<trkpt lat="-7.948544000" lon="-34.886173000"><ele>22.8</ele><time>2026-04-14T17:12:36Z</time></trkpt>
<trkpt lat="-7.948539000" lon="-34.886086000"><ele>22.8</ele><time>2026-04-14T17:12:39Z</time></trkpt>
<trkpt lat="-7.948540000" lon="-34.886000000"><ele>22.7</ele><time>2026-04-14T17:12:41Z</time></trkpt>
<trkpt lat="-7.948555000" lon="-34.885910000"><ele>22.5</ele><time>2026-04-14T17:12:44Z</time></trkpt>
<trkpt lat="-7.948549000" lon="-34.885815000"><ele>22.4</ele><time>2026-04-14T17:12:49Z</time></trkpt>
<trkpt lat="-7.948525000" lon="-34.885710000"><ele>22.2</ele><time>2026-04-14T17:12:53Z</time></trkpt>
<trkpt lat="-7.948531000" lon="-34.885628000"><ele>22.0</ele><time>2026-04-14T17:12:56Z</time></trkpt>
<trkpt lat="-7.948533000" lon="-34.885517000"><ele>21.8</ele><time>2026-04-14T17:13:00Z</time></trkpt>
<trkpt lat="-7.948533000" lon="-34.885418000"><ele>21.5</ele><time>2026-04-14T17:13:03Z</time></trkpt>
<trkpt lat="-7.948529000" lon="-34.885323000"><ele>21.3</ele><time>2026-04-14T17:13:06Z</time></trkpt>
<trkpt lat="-7.948521000" lon="-34.885227000"><ele>20.9</ele><time>2026-04-14T17:13:09Z</time></trkpt>
<trkpt lat="-7.948527000" lon="-34.885136000"><ele>20.6</ele><time>2026-04-14T17:13:12Z</time></trkpt>
<trkpt lat="-7.948524000" lon="-34.885044000"><ele>20.4</ele><time>2026-04-14T17:13:17Z</time></trkpt>
<trkpt lat="-7.948515000" lon="-34.884960000"><ele>20.1</ele><time>2026-04-14T17:13:22Z</time></trkpt>
<trkpt lat="-7.948511000" lon="-34.884865000"><ele>19.9</ele><time>2026-04-14T17:13:28Z</time></trkpt>
<trkpt lat="-7.948501000" lon="-34.884777000"><ele>19.8</ele><time>2026-04-14T17:13:34Z</time></trkpt>
<trkpt lat="-7.948494000" lon="-34.884697000"><ele>19.7</ele><time>2026-04-14T17:13:40Z</time></trkpt>
<trkpt lat="-7.948491000" lon="-34.884613000"><ele>19.7</ele><time>2026-04-14T17:13:46Z</time></trkpt>
<trkpt lat="-7.948475000" lon="-34.884525000"><ele>19.7</ele><time>2026-04-14T17:13:52Z</time></trkpt>
<trkpt lat="-7.948451000" lon="-34.884430000"><ele>19.8</ele><time>2026-04-14T17:13:58Z</time></trkpt>
<trkpt lat="-7.948436000" lon="-34.884346000"><ele>19.9</ele><time>2026-04-14T17:14:04Z</time></trkpt>
<trkpt lat="-7.948419000" lon="-34.884266000"><ele>20.1</ele><time>2026-04-14T17:14:10Z</time></trkpt>
<trkpt lat="-7.948398000" lon="-34.884174000"><ele>20.4</ele><time>2026-04-14T17:14:15Z</time></trkpt>
<trkpt lat="-7.948390000" lon="-34.884094000"><ele>20.6</ele><time>2026-04-14T17:14:18Z</time></trkpt>
<trkpt lat="-7.948381000" lon="-34.884003000"><ele>21.0</ele><time>2026-04-14T17:14:21Z</time></trkpt>
<trkpt lat="-7.948371000" lon="-34.883915000"><ele>21.4</ele><time>2026-04-14T17:14:24Z</time></trkpt>
<trkpt lat="-7.948353000" lon="-34.883816000"><ele>21.6</ele><time>2026-04-14T17:14:27Z</time></trkpt>
<trkpt lat="-7.948323000" lon="-34.883724000"><ele>22.0</ele><time>2026-04-14T17:14:30Z</time></trkpt>
<trkpt lat="-7.948291000" lon="-34.883648000"><ele>22.3</ele><time>2026-04-14T17:14:33Z</time></trkpt>
<trkpt lat="-7.948248000" lon="-34.883570000"><ele>22.5</ele><time>2026-04-14T17:14:36Z</time></trkpt>
<trkpt lat="-7.948211000" lon="-34.883490000"><ele>22.6</ele><time>2026-04-14T17:14:39Z</time></trkpt>
<trkpt lat="-7.948164000" lon="-34.883415000"><ele>22.8</ele><time>2026-04-14T17:14:43Z</time></trkpt>
<trkpt lat="-7.948124000" lon="-34.883340000"><ele>23.1</ele><time>2026-04-14T17:14:46Z</time></trkpt>
<trkpt lat="-7.948085000" lon="-34.883236000"><ele>23.3</ele><time>2026-04-14T17:14:50Z</time></trkpt>
<trkpt lat="-7.948050000" lon="-34.883156000"><ele>23.5</ele><time>2026-04-14T17:14:53Z</time></trkpt>
<trkpt lat="-7.948017000" lon="-34.883076000"><ele>23.5</ele><time>2026-04-14T17:14:56Z</time></trkpt>
<trkpt lat="-7.947977000" lon="-34.882990000"><ele>23.5</ele><time>2026-04-14T17:14:59Z</time></trkpt>
<trkpt lat="-7.947935000" lon="-34.882908000"><ele>23.5</ele><time>2026-04-14T17:15:02Z</time></trkpt>
<trkpt lat="-7.947896000" lon="-34.882824000"><ele>23.4</ele><time>2026-04-14T17:15:05Z</time></trkpt>
<trkpt lat="-7.947867000" lon="-34.882740000"><ele>23.2</ele><time>2026-04-14T17:15:08Z</time></trkpt>
<trkpt lat="-7.947827000" lon="-34.882652000"><ele>23.1</ele><time>2026-04-14T17:15:12Z</time></trkpt>
<trkpt lat="-7.947788000" lon="-34.882572000"><ele>22.9</ele><time>2026-04-14T17:15:17Z</time></trkpt>
<trkpt lat="-7.947761000" lon="-34.882480000"><ele>22.7</ele><time>2026-04-14T17:15:22Z</time></trkpt>
<trkpt lat="-7.947729000" lon="-34.882400000"><ele>22.4</ele><time>2026-04-14T17:15:27Z</time></trkpt>
<trkpt lat="-7.947686000" lon="-34.882328000"><ele>22.0</ele><time>2026-04-14T17:15:32Z</time></trkpt>
<trkpt lat="-7.947645000" lon="-34.882248000"><ele>21.6</ele><time>2026-04-14T17:15:38Z</time></trkpt>
<trkpt lat="-7.947607000" lon="-34.882164000"><ele>21.4</ele><time>2026-04-14T17:15:43Z</time></trkpt>
<trkpt lat="-7.947566000" lon="-34.882076000"><ele>21.0</ele><time>2026-04-14T17:15:48Z</time></trkpt>
<trkpt lat="-7.947521000" lon="-34.882004000"><ele>20.6</ele><time>2026-04-14T17:15:53Z</time></trkpt>
<trkpt lat="-7.947479000" lon="-34.881927000"><ele>20.2</ele><time>2026-04-14T17:15:58Z</time></trkpt>
<trkpt lat="-7.947420000" lon="-34.881855000"><ele>19.8</ele><time>2026-04-14T17:16:04Z</time></trkpt>
<trkpt lat="-7.947370000" lon="-34.881775000"><ele>19.4</ele><time>2026-04-14T17:16:10Z</time></trkpt>
<trkpt lat="-7.947328000" lon="-34.881706000"><ele>19.0</ele><time>2026-04-14T17:16:15Z</time></trkpt>
<trkpt lat="-7.947295000" lon="-34.881630000"><ele>18.6</ele><time>2026-04-14T17:16:20Z</time></trkpt>
<trkpt lat="-7.947262000" lon="-34.881542000"><ele>18.4</ele><time>2026-04-14T17:16:26Z</time></trkpt>
<trkpt lat="-7.947225000" lon="-34.881466000"><ele>18.1</ele><time>2026-04-14T17:16:33Z</time></trkpt>
<trkpt lat="-7.947190000" lon="-34.881380000"><ele>17.8</ele><time>2026-04-14T17:16:39Z</time></trkpt>
<trkpt lat="-7.947171000" lon="-34.881298000"><ele>17.6</ele><time>2026-04-14T17:16:45Z</time></trkpt>
<trkpt lat="-7.947169000" lon="-34.881214000"><ele>17.5</ele><time>2026-04-14T17:16:51Z</time></trkpt>
<trkpt lat="-7.947161000" lon="-34.881107000"><ele>17.5</ele><time>2026-04-14T17:16:59Z</time></trkpt>
<trkpt lat="-7.947165000" lon="-34.881023000"><ele>17.5</ele><time>2026-04-14T17:17:05Z</time></trkpt>
<trkpt lat="-7.947155000" lon="-34.880936000"><ele>17.5</ele><time>2026-04-14T17:17:11Z</time></trkpt>
<trkpt lat="-7.947105000" lon="-34.880856000"><ele>17.6</ele><time>2026-04-14T17:17:15Z</time></trkpt>
<trkpt lat="-7.947063000" lon="-34.880760000"><ele>17.7</ele><time>2026-04-14T17:17:18Z</time></trkpt>
<trkpt lat="-7.947043000" lon="-34.880672000"><ele>17.8</ele><time>2026-04-14T17:17:21Z</time></trkpt>
<trkpt lat="-7.947026000" lon="-34.880585000"><ele>18.0</ele><time>2026-04-14T17:17:26Z</time></trkpt>
<trkpt lat="-7.946974000" lon="-34.880516000"><ele>18.2</ele><time>2026-04-14T17:17:43Z</time></trkpt>
<trkpt lat="-7.946965000" lon="-34.880420000"><ele>18.4</ele><time>2026-04-14T17:17:47Z</time></trkpt>
<trkpt lat="-7.946951000" lon="-34.880337000"><ele>18.5</ele><time>2026-04-14T17:17:50Z</time></trkpt>
<trkpt lat="-7.946926000" lon="-34.880253000"><ele>18.6</ele><time>2026-04-14T17:17:54Z</time></trkpt>
<trkpt lat="-7.946913000" lon="-34.880150000"><ele>18.8</ele><time>2026-04-14T17:18:00Z</time></trkpt>
<trkpt lat="-7.946913000" lon="-34.880066000"><ele>18.9</ele><time>2026-04-14T17:18:03Z</time></trkpt>
<trkpt lat="-7.946924000" lon="-34.879980000"><ele>18.9</ele><time>2026-04-14T17:18:13Z</time></trkpt>
<trkpt lat="-7.946959000" lon="-34.879894000"><ele>19.0</ele><time>2026-04-14T17:18:16Z</time></trkpt>
<trkpt lat="-7.947001000" lon="-34.879800000"><ele>19.1</ele><time>2026-04-14T17:18:19Z</time></trkpt>
<trkpt lat="-7.947040000" lon="-34.879715000"><ele>19.1</ele><time>2026-04-14T17:18:22Z</time></trkpt>
<trkpt lat="-7.947091000" lon="-34.879646000"><ele>18.9</ele><time>2026-04-14T17:18:25Z</time></trkpt>
<trkpt lat="-7.947145000" lon="-34.879570000"><ele>18.6</ele><time>2026-04-14T17:18:30Z</time></trkpt>
<trkpt lat="-7.947178000" lon="-34.879486000"><ele>18.4</ele><time>2026-04-14T17:18:35Z</time></trkpt>
<trkpt lat="-7.947205000" lon="-34.879400000"><ele>18.1</ele><time>2026-04-14T17:18:41Z</time></trkpt>
<trkpt lat="-7.947231000" lon="-34.879320000"><ele>17.7</ele><time>2026-04-14T17:18:47Z</time></trkpt>
<trkpt lat="-7.947271000" lon="-34.879234000"><ele>17.5</ele><time>2026-04-14T17:18:53Z</time></trkpt>
<trkpt lat="-7.947312000" lon="-34.879154000"><ele>17.3</ele><time>2026-04-14T17:18:58Z</time></trkpt>
<trkpt lat="-7.947352000" lon="-34.879066000"><ele>17.2</ele><time>2026-04-14T17:19:02Z</time></trkpt>
<trkpt lat="-7.947402000" lon="-34.878970000"><ele>17.1</ele><time>2026-04-14T17:19:06Z</time></trkpt>
<trkpt lat="-7.947455000" lon="-34.878883000"><ele>17.0</ele><time>2026-04-14T17:19:10Z</time></trkpt>
<trkpt lat="-7.947487000" lon="-34.878807000"><ele>17.1</ele><time>2026-04-14T17:19:14Z</time></trkpt>
<trkpt lat="-7.947520000" lon="-34.878723000"><ele>17.3</ele><time>2026-04-14T17:19:19Z</time></trkpt>
<trkpt lat="-7.947543000" lon="-34.878640000"><ele>17.5</ele><time>2026-04-14T17:19:23Z</time></trkpt>
<trkpt lat="-7.947567000" lon="-34.878555000"><ele>17.8</ele><time>2026-04-14T17:19:28Z</time></trkpt>
<trkpt lat="-7.947582000" lon="-34.878464000"><ele>18.1</ele><time>2026-04-14T17:19:34Z</time></trkpt>
<trkpt lat="-7.947599000" lon="-34.878380000"><ele>18.4</ele><time>2026-04-14T17:19:41Z</time></trkpt>
<trkpt lat="-7.947572000" lon="-34.878300000"><ele>18.5</ele><time>2026-04-14T17:19:50Z</time></trkpt>
<trkpt lat="-7.947493000" lon="-34.878280000"><ele>18.6</ele><time>2026-04-14T17:19:58Z</time></trkpt>
<trkpt lat="-7.947406000" lon="-34.878292000"><ele>18.6</ele><time>2026-04-14T17:20:05Z</time></trkpt>
<trkpt lat="-7.947321000" lon="-34.878320000"><ele>18.5</ele><time>2026-04-14T17:20:12Z</time></trkpt>
<trkpt lat="-7.947234000" lon="-34.878334000"><ele>18.5</ele><time>2026-04-14T17:20:20Z</time></trkpt>
<trkpt lat="-7.947133000" lon="-34.878338000"><ele>18.2</ele><time>2026-04-14T17:20:29Z</time></trkpt>
<trkpt lat="-7.947052000" lon="-34.878353000"><ele>17.9</ele><time>2026-04-14T17:20:33Z</time></trkpt>
<trkpt lat="-7.946967000" lon="-34.878372000"><ele>17.6</ele><time>2026-04-14T17:20:37Z</time></trkpt>
<trkpt lat="-7.946869000" lon="-34.878350000"><ele>17.4</ele><time>2026-04-14T17:20:41Z</time></trkpt>
<trkpt lat="-7.946782000" lon="-34.878357000"><ele>17.1</ele><time>2026-04-14T17:20:46Z</time></trkpt>
<trkpt lat="-7.946694000" lon="-34.878353000"><ele>16.7</ele><time>2026-04-14T17:20:49Z</time></trkpt>
<trkpt lat="-7.946603000" lon="-34.878345000"><ele>16.4</ele><time>2026-04-14T17:20:52Z</time></trkpt>
<trkpt lat="-7.946508000" lon="-34.878350000"><ele>16.0</ele><time>2026-04-14T17:20:57Z</time></trkpt>
<trkpt lat="-7.946424000" lon="-34.878357000"><ele>15.5</ele><time>2026-04-14T17:21:06Z</time></trkpt>
<trkpt lat="-7.946344000" lon="-34.878304000"><ele>15.1</ele><time>2026-04-14T17:21:41Z</time></trkpt>
<trkpt lat="-7.946274000" lon="-34.878254000"><ele>14.5</ele><time>2026-04-14T17:21:45Z</time></trkpt>
<trkpt lat="-7.946184000" lon="-34.878227000"><ele>14.1</ele><time>2026-04-14T17:21:49Z</time></trkpt>
<trkpt lat="-7.946095000" lon="-34.878200000"><ele>13.6</ele><time>2026-04-14T17:21:54Z</time></trkpt>
<trkpt lat="-7.946015000" lon="-34.878170000"><ele>13.2</ele><time>2026-04-14T17:21:57Z</time></trkpt>
<trkpt lat="-7.945932000" lon="-34.878150000"><ele>12.8</ele><time>2026-04-14T17:22:00Z</time></trkpt>
<trkpt lat="-7.945833000" lon="-34.878120000"><ele>12.5</ele><time>2026-04-14T17:22:03Z</time></trkpt>
<trkpt lat="-7.945738000" lon="-34.878086000"><ele>12.3</ele><time>2026-04-14T17:22:06Z</time></trkpt>
<trkpt lat="-7.945654000" lon="-34.878060000"><ele>12.1</ele><time>2026-04-14T17:22:09Z</time></trkpt>
<trkpt lat="-7.945567000" lon="-34.878033000"><ele>12.0</ele><time>2026-04-14T17:22:12Z</time></trkpt>
<trkpt lat="-7.945475000" lon="-34.878002000"><ele>12.0</ele><time>2026-04-14T17:22:16Z</time></trkpt>
<trkpt lat="-7.945397000" lon="-34.877970000"><ele>12.1</ele><time>2026-04-14T17:22:21Z</time></trkpt>
<trkpt lat="-7.945305000" lon="-34.877956000"><ele>12.3</ele><time>2026-04-14T17:22:27Z</time></trkpt>
<trkpt lat="-7.945217000" lon="-34.877922000"><ele>12.4</ele><time>2026-04-14T17:22:33Z</time></trkpt>
<trkpt lat="-7.945128000" lon="-34.877888000"><ele>12.5</ele><time>2026-04-14T17:22:39Z</time></trkpt>
<trkpt lat="-7.945047000" lon="-34.877860000"><ele>12.5</ele><time>2026-04-14T17:22:45Z</time></trkpt>
<trkpt lat="-7.944960000" lon="-34.877840000"><ele>12.4</ele><time>2026-04-14T17:22:51Z</time></trkpt>
<trkpt lat="-7.944877000" lon="-34.877804000"><ele>12.3</ele><time>2026-04-14T17:22:57Z</time></trkpt>
<trkpt lat="-7.944792000" lon="-34.877760000"><ele>12.1</ele><time>2026-04-14T17:23:04Z</time></trkpt>
<trkpt lat="-7.944714000" lon="-34.877740000"><ele>11.8</ele><time>2026-04-14T17:23:10Z</time></trkpt>
<trkpt lat="-7.944627000" lon="-34.877730000"><ele>11.5</ele><time>2026-04-14T17:23:16Z</time></trkpt>
<trkpt lat="-7.944535000" lon="-34.877716000"><ele>11.3</ele><time>2026-04-14T17:23:22Z</time></trkpt>
<trkpt lat="-7.944444000" lon="-34.877728000"><ele>11.0</ele><time>2026-04-14T17:23:28Z</time></trkpt>
<trkpt lat="-7.944341000" lon="-34.877743000"><ele>10.7</ele><time>2026-04-14T17:23:32Z</time></trkpt>
<trkpt lat="-7.944262000" lon="-34.877716000"><ele>10.6</ele><time>2026-04-14T17:23:35Z</time></trkpt>
<trkpt lat="-7.944173000" lon="-34.877712000"><ele>10.5</ele><time>2026-04-14T17:23:38Z</time></trkpt>
<trkpt lat="-7.944083000" lon="-34.877700000"><ele>10.6</ele><time>2026-04-14T17:23:41Z</time></trkpt>
<trkpt lat="-7.943987000" lon="-34.877705000"><ele>10.7</ele><time>2026-04-14T17:23:44Z</time></trkpt>
<trkpt lat="-7.943902000" lon="-34.877710000"><ele>10.7</ele><time>2026-04-14T17:23:47Z</time></trkpt>
<trkpt lat="-7.943806000" lon="-34.877716000"><ele>10.7</ele><time>2026-04-14T17:23:50Z</time></trkpt>
<trkpt lat="-7.943709000" lon="-34.877730000"><ele>10.8</ele><time>2026-04-14T17:23:53Z</time></trkpt>
<trkpt lat="-7.943612000" lon="-34.877758000"><ele>10.9</ele><time>2026-04-14T17:23:56Z</time></trkpt>
<trkpt lat="-7.943520000" lon="-34.877773000"><ele>11.0</ele><time>2026-04-14T17:23:59Z</time></trkpt>
<trkpt lat="-7.943420000" lon="-34.877790000"><ele>11.2</ele><time>2026-04-14T17:24:02Z</time></trkpt>
<trkpt lat="-7.943334000" lon="-34.877800000"><ele>11.4</ele><time>2026-04-14T17:24:05Z</time></trkpt>
<trkpt lat="-7.943247000" lon="-34.877810000"><ele>11.5</ele><time>2026-04-14T17:24:08Z</time></trkpt>
<trkpt lat="-7.943153000" lon="-34.877823000"><ele>11.6</ele><time>2026-04-14T17:24:11Z</time></trkpt>
<trkpt lat="-7.943069000" lon="-34.877834000"><ele>11.7</ele><time>2026-04-14T17:24:16Z</time></trkpt>
<trkpt lat="-7.942988000" lon="-34.877850000"><ele>11.8</ele><time>2026-04-14T17:24:22Z</time></trkpt>
<trkpt lat="-7.942905000" lon="-34.877880000"><ele>12.1</ele><time>2026-04-14T17:24:29Z</time></trkpt>
<trkpt lat="-7.942831000" lon="-34.877922000"><ele>12.3</ele><time>2026-04-14T17:24:36Z</time></trkpt>
<trkpt lat="-7.942748000" lon="-34.877922000"><ele>12.5</ele><time>2026-04-14T17:24:44Z</time></trkpt>
<trkpt lat="-7.942661000" lon="-34.877940000"><ele>12.6</ele><time>2026-04-14T17:24:52Z</time></trkpt>
<trkpt lat="-7.942571000" lon="-34.877970000"><ele>12.7</ele><time>2026-04-14T17:24:59Z</time></trkpt>
<trkpt lat="-7.942488000" lon="-34.877995000"><ele>12.7</ele><time>2026-04-14T17:25:06Z</time></trkpt>
<trkpt lat="-7.942406000" lon="-34.878014000"><ele>12.6</ele><time>2026-04-14T17:25:13Z</time></trkpt>
<trkpt lat="-7.942322000" lon="-34.878048000"><ele>12.5</ele><time>2026-04-14T17:25:20Z</time></trkpt>
<trkpt lat="-7.942237000" lon="-34.878067000"><ele>12.4</ele><time>2026-04-14T17:25:26Z</time></trkpt>
<trkpt lat="-7.942153000" lon="-34.878086000"><ele>12.2</ele><time>2026-04-14T17:25:32Z</time></trkpt>
<trkpt lat="-7.942060000" lon="-34.878098000"><ele>12.0</ele><time>2026-04-14T17:25:39Z</time></trkpt>
<trkpt lat="-7.941968000" lon="-34.878117000"><ele>11.7</ele><time>2026-04-14T17:25:47Z</time></trkpt>
<trkpt lat="-7.941888000" lon="-34.878140000"><ele>11.5</ele><time>2026-04-14T17:25:53Z</time></trkpt>
<trkpt lat="-7.941806000" lon="-34.878150000"><ele>11.4</ele><time>2026-04-14T17:26:00Z</time></trkpt>
<trkpt lat="-7.941727000" lon="-34.878170000"><ele>11.2</ele><time>2026-04-14T17:26:06Z</time></trkpt>
<trkpt lat="-7.941646000" lon="-34.878197000"><ele>11.1</ele><time>2026-04-14T17:26:13Z</time></trkpt>
<trkpt lat="-7.941556000" lon="-34.878227000"><ele>11.0</ele><time>2026-04-14T17:26:20Z</time></trkpt>
<trkpt lat="-7.941465000" lon="-34.878254000"><ele>11.0</ele><time>2026-04-14T17:26:27Z</time></trkpt>
<trkpt lat="-7.941384000" lon="-34.878273000"><ele>11.1</ele><time>2026-04-14T17:26:33Z</time></trkpt>
<trkpt lat="-7.941290000" lon="-34.878290000"><ele>11.2</ele><time>2026-04-14T17:26:40Z</time></trkpt>
<trkpt lat="-7.941207000" lon="-34.878304000"><ele>11.4</ele><time>2026-04-14T17:26:46Z</time></trkpt>
<trkpt lat="-7.941118000" lon="-34.878320000"><ele>11.5</ele><time>2026-04-14T17:26:53Z</time></trkpt>
<trkpt lat="-7.941044000" lon="-34.878365000"><ele>11.8</ele><time>2026-04-14T17:27:00Z</time></trkpt>
<trkpt lat="-7.940960000" lon="-34.878410000"><ele>12.1</ele><time>2026-04-14T17:27:08Z</time></trkpt>
<trkpt lat="-7.940880000" lon="-34.878450000"><ele>12.5</ele><time>2026-04-14T17:27:12Z</time></trkpt>
<trkpt lat="-7.940809000" lon="-34.878494000"><ele>12.8</ele><time>2026-04-14T17:27:17Z</time></trkpt>
<trkpt lat="-7.940733000" lon="-34.878540000"><ele>13.3</ele><time>2026-04-14T17:27:24Z</time></trkpt>
<trkpt lat="-7.940654000" lon="-34.878590000"><ele>13.7</ele><time>2026-04-14T17:27:31Z</time></trkpt>
<trkpt lat="-7.940574000" lon="-34.878635000"><ele>14.2</ele><time>2026-04-14T17:27:37Z</time></trkpt>
<trkpt lat="-7.940499000" lon="-34.878685000"><ele>14.5</ele><time>2026-04-14T17:27:43Z</time></trkpt>
<trkpt lat="-7.940422000" lon="-34.878740000"><ele>14.7</ele><time>2026-04-14T17:27:49Z</time></trkpt>
<trkpt lat="-7.940348000" lon="-34.878788000"><ele>14.9</ele><time>2026-04-14T17:27:55Z</time></trkpt>
<trkpt lat="-7.940262000" lon="-34.878830000"><ele>15.1</ele><time>2026-04-14T17:28:01Z</time></trkpt>
<trkpt lat="-7.940191000" lon="-34.878880000"><ele>15.1</ele><time>2026-04-14T17:28:07Z</time></trkpt>
<trkpt lat="-7.940119000" lon="-34.878920000"><ele>15.1</ele><time>2026-04-14T17:28:14Z</time></trkpt>
<trkpt lat="-7.940068000" lon="-34.878986000"><ele>14.9</ele><time>2026-04-14T17:28:21Z</time></trkpt>
<trkpt lat="-7.940006000" lon="-34.879050000"><ele>14.8</ele><time>2026-04-14T17:28:28Z</time></trkpt>
<trkpt lat="-7.939941000" lon="-34.879100000"><ele>14.6</ele><time>2026-04-14T17:28:33Z</time></trkpt>
<trkpt lat="-7.939876000" lon="-34.879154000"><ele>14.5</ele><time>2026-04-14T17:28:39Z</time></trkpt>
<trkpt lat="-7.939801000" lon="-34.879204000"><ele>14.3</ele><time>2026-04-14T17:28:45Z</time></trkpt>
<trkpt lat="-7.939737000" lon="-34.879265000"><ele>14.2</ele><time>2026-04-14T17:28:52Z</time></trkpt>
<trkpt lat="-7.939663000" lon="-34.879320000"><ele>14.1</ele><time>2026-04-14T17:28:58Z</time></trkpt>
<trkpt lat="-7.939589000" lon="-34.879356000"><ele>14.0</ele><time>2026-04-14T17:29:04Z</time></trkpt>
<trkpt lat="-7.939518000" lon="-34.879414000"><ele>13.9</ele><time>2026-04-14T17:29:10Z</time></trkpt>
<trkpt lat="-7.939436000" lon="-34.879463000"><ele>13.9</ele><time>2026-04-14T17:29:16Z</time></trkpt>
<trkpt lat="-7.939370000" lon="-34.879513000"><ele>13.9</ele><time>2026-04-14T17:29:22Z</time></trkpt>
<trkpt lat="-7.939304000" lon="-34.879562000"><ele>14.0</ele><time>2026-04-14T17:29:28Z</time></trkpt>
<trkpt lat="-7.939224000" lon="-34.879612000"><ele>14.0</ele><time>2026-04-14T17:29:34Z</time></trkpt>
<trkpt lat="-7.939152000" lon="-34.879660000"><ele>14.0</ele><time>2026-04-14T17:29:40Z</time></trkpt>
<trkpt lat="-7.939087000" lon="-34.879715000"><ele>14.0</ele><time>2026-04-14T17:29:47Z</time></trkpt>
<trkpt lat="-7.939063000" lon="-34.879745000"><ele>14.0</ele><time>2026-04-14T17:29:51Z</time></trkpt>
</trkseg>
</trk>
</gpx>
